COSMOS 2251 DEB         
1 34683U 93036YD  26073.55744950  .00007542  00000+0  13851-2 0  9999
2 34683  74.0273 275.5395 0017424   3.0690  30.0639 14.65747587896931
COSMOS 2251 DEB         
1 34685U 93036YF  26072.14917016  .00004416  00000+0  95674-3 0  9991
2 34685  74.0321 336.7533 0012169  59.4803  94.3819 14.58445751898499
COSMOS 2251 DEB         
1 34689U 93036YK  26072.43699405  .00004647  00000+0  22916-2 0  9990
2 34689  74.0868  65.4303 0219131 114.0710  38.1904 14.06001556856155
COSMOS 2251 DEB         
1 34721U 93036YP  26073.50984435  .00001831  00000+0  10844-2 0  9995
2 34721  73.9228 166.9894 0216422  87.3767 287.7101 13.97278094864316
COSMOS 2251 DEB         
1 34722U 93036YQ  26073.01749002  .00000744  00000+0  36968-3 0  9999
2 34722  73.8714 173.2576 0161639  81.4609  94.7814 14.12194279875334
COSMOS 2251 DEB         
1 34726U 93036YU  26073.35873172  .00001843  00000+0  38540-3 0  9995
2 34726  74.0289 171.4871 0044880 297.1613  62.4980 14.59945815898393
COSMOS 2251 DEB         
1 34728U 93036YW  26071.98175216  .00004037  00000+0  64259-3 0  9992
2 34728  74.0152  76.2355 0043491 214.9398 144.8919 14.71733264901273
COSMOS 2251 DEB         
1 34729U 93036YX  26073.54611173  .00022476  00000+0  25641-2 0  9992
2 34729  74.0163 176.1286 0017447 278.9177  95.8711 14.85933780898209
COSMOS 2251 DEB         
1 34732U 93036ZA  26073.57193777  .00000451  00000+0  12928-3 0  9998
2 34732  74.0433 281.5688 0038510  47.7749 343.5264 14.47406472894721
COSMOS 2251 DEB         
1 34738U 93036ZG  26073.49106993  .00001077  00000+0  30254-3 0  9996
2 34738  74.0176 331.7468 0045285  96.7594 320.7683 14.46546624891850
COSMOS 2251 DEB         
1 34750U 93036ZU  26072.30235922  .00006868  00000+0  13425-2 0  9997
2 34750  74.1085  29.1580 0038670 311.4714 207.1209 14.62582614895547
COSMOS 2251 DEB         
1 34752U 93036ZW  26073.53158121  .00019574  00000+0  14179-2 0  9995
2 34752  74.0128 173.3570 0049682 279.0501  80.5067 15.02922625912275
COSMOS 2251 DEB         
1 34754U 93036ZY  26073.41407197  .00000685  00000+0  22194-3 0  9994
2 34754  74.0294  58.0018 0028898 157.0689 355.6636 14.40627391894534
COSMOS 2251 DEB         
1 34755U 93036ZZ  26073.63828412  .00000672  00000+0  64345-3 0  9996
2 34755  73.9242 142.2991 0404790 145.5154   5.6555 13.50793940837645
COSMOS 2251 DEB         
1 34756U 93036AAA 26072.64963503  .00001217  00000+0  97196-3 0  9994
2 34756  74.0033 314.8210 0344923 171.7851 188.9123 13.67509740846640
COSMOS 2251 DEB         
1 34758U 93036AAC 26073.60755293  .00001839  00000+0  15692-2 0  9998
2 34758  74.1068 151.5939 0387192 254.3925 101.4147 13.58360519841572
COSMOS 2251 DEB         
1 34760U 93036AAE 26073.46278292  .00000909  00000+0  42072-3 0  9994
2 34760  74.0627 138.6428 0096063 170.8949 210.9993 14.19832176879900
COSMOS 2251 DEB         
1 34761U 93036AAF 26073.61216273  .00002488  00000+0  81624-3 0  9993
2 34761  74.0290 193.4232 0037528 210.4409 149.4567 14.38478875889707
COSMOS 2251 DEB         
1 34784U 93036AAM 26072.61658966  .00002340  00000+0  47139-3 0  9996
2 34784  74.0069 150.3437 0052365 295.4605  64.1149 14.61276914898628
COSMOS 2251 DEB         
1 34790U 93036AAT 26073.45545405  .00001167  00000+0  48449-3 0  9990
2 34790  74.0513  78.5228 0097156 119.5241  32.2864 14.24994309878797
COSMOS 2251 DEB         
1 34792U 93036AAV 26073.58707851  .00005275  00000+0  11805-2 0  9990
2 34792  74.0209 355.2531 0010006  72.1737 345.9102 14.56902870889873
COSMOS 2251 DEB         
1 34793U 93036AAW 26073.45661322  .00000699  00000+0  23242-3 0  9993
2 34793  74.0002  80.8971 0052443 215.7285 295.3132 14.38808895886496
COSMOS 2251 DEB         
1 34796U 93036AAZ 26073.61236288  .00002692  00000+0  67131-3 0  9993
2 34796  74.0306  44.0079 0097420 125.0737 357.3883 14.49263034893588
COSMOS 2251 DEB         
1 34797U 93036ABA 26073.57197544  .00006341  00000+0  18063-2 0  9994
2 34797  73.9764 288.7244 0070068  20.4901 339.9040 14.44010685887408
COSMOS 2251 DEB         
1 34813U 93036ABC 26068.84045055  .00006198  00000+0  53059-2 0  9990
2 34813  73.9340 353.0437 0436226  10.5078 350.4785 13.50938738828317
COSMOS 2251 DEB         
1 34814U 93036ABD 26073.49403870  .00001920  00000+0  64114-3 0  9994
2 34814  73.8957 155.2267 0053870  21.1944 356.0955 14.37348915886519
COSMOS 2251 DEB         
1 34815U 93036ABE 26072.01227834  .00006998  00000+0  91135-3 0  9999
2 34815  74.0435  64.3401 0053465 112.6418 248.0425 14.79767507899622
COSMOS 2251 DEB         
1 34816U 93036ABF 26073.51417384  .00001444  00000+0  12797-2 0  9994
2 34816  73.8907 353.3629 0371130  41.2256 136.6384 13.58554880840295
COSMOS 2251 DEB         
1 34818U 93036ABH 26073.58163073  .00000601  00000+0  21047-3 0  9999
2 34818  74.0348 128.0556 0024698 188.6660 321.7374 14.37106515886892
COSMOS 2251 DEB         
1 34819U 93036ABJ 26072.99421646  .00006626  00000+0  12247-2 0  9991
2 34819  74.0197 327.0053 0013357  38.5295 336.4650 14.65539544895652
COSMOS 2251 DEB         
1 34823U 93036ABN 26071.93396491  .00001823  00000+0  36460-3 0  9996
2 34823  74.0401 291.4722 0153369 352.6062   7.2837 14.55417464896939
COSMOS 2251 DEB         
1 34845U 93036ABP 26073.41342341  .00000901  00000+0  25928-3 0  9993
2 34845  74.0267 337.2051 0020847 119.6360 240.6878 14.46073105887919
COSMOS 2251 DEB         
1 34846U 93036ABQ 26073.32614863  .00002276  00000+0  62008-3 0  9992
2 34846  74.0283  90.4151 0023672 143.6215 216.6559 14.47828679887297
COSMOS 2251 DEB         
1 34852U 93036ABW 26073.42451057  .00000311  00000+0  11337-3 0  9991
2 34852  74.0308  94.3449 0016489 184.6194 175.4810 14.37083318888514
COSMOS 2251 DEB         
1 34854U 93036ABY 26073.45934473  .00005067  00000+0  68901-3 0  9996
2 34854  74.0311 338.6382 0062764  67.0498 293.7283 14.77670287732368
COSMOS 2251 DEB         
1 34856U 93036ACA 26072.94507790  .00032604  00000+0  18910-2 0  9990
2 34856  73.9924 256.4694 0029645   6.9183 142.9660 15.11645275904874
COSMOS 2251 DEB         
1 34857U 93036ACB 26073.60840332  .00004096  00000+0  83934-3 0  9990
2 34857  74.0146 291.4688 0063737  32.4144 359.0246 14.59784120892417
COSMOS 2251 DEB         
1 34859U 93036ACD 26073.59676950  .00334701  00000+0  87989-2 0  9995
2 34859  74.0260 146.1911 0016407 318.0688  41.9261 15.37049921897575
COSMOS 2251 DEB         
1 34861U 93036ACF 26072.39150419  .00043803  00000+0  24049-2 0  9990
2 34861  74.0106 224.0681 0001938 271.8151 116.6335 15.13919818894597
COSMOS 2251 DEB         
1 34874U 93036ACM 26071.98942384  .00002360  00000+0  79453-3 0  9991
2 34874  74.0377 267.9388 0051682 271.3984 240.3901 14.36871617883401
COSMOS 2251 DEB         
1 34875U 93036ACN 26073.48323499  .00001626  00000+0  43262-3 0  9992
2 34875  74.0468 346.2740 0014072  89.9480  88.0940 14.49295928890847
COSMOS 2251 DEB         
1 34878U 93036ACR 26071.95517545  .00000490  00000+0  49924-3 0  9991
2 34878  73.9618 264.1660 0435205 230.4849 203.2911 13.44304283824857
COSMOS 2251 DEB         
1 34882U 93036ACV 26072.26037915  .00000815  00000+0  16168-3 0  9994
2 34882  74.0454  52.4830 0082304 158.0538 202.4188 14.61795203898479
COSMOS 2251 DEB         
1 34883U 93036ACW 26072.24887579  .00014390  00000+0  32016-2 0  9994
2 34883  74.1969 253.6296 0091153  50.2950 310.6204 14.54399388877548
COSMOS 2251 DEB         
1 34884U 93036ACX 26073.53090008  .00045634  00000+0  40538-2 0  9994
2 34884  74.0131 231.9887 0004697 296.3370 128.8242 14.95896853891754
COSMOS 2251 DEB         
1 34885U 93036ACY 26073.20115036  .00003118  00000+0  77551-3 0  9995
2 34885  74.0333  10.7177 0012470  77.4781  50.5553 14.52129469888067
COSMOS 2251 DEB         
1 34886U 93036ACZ 26073.06701064  .00289331  00000+0  29387-2 0  9998
2 34886  73.9460 339.9513 0025445 153.1353 207.1191 15.63801351644125
COSMOS 2251 DEB         
1 34908U 93036ADD 26070.12588171  .00002227  00000+0  74097-3 0  9995
2 34908  74.0572 221.1854 0041129 218.8931 258.2111 14.37768802885493
COSMOS 2251 DEB         
1 34909U 93036ADE 26072.92968214  .00003136  00000+0  40937-3 0  9992
2 34909  74.0111 257.1859 0082829   8.2154 352.0354 14.78574337681991
COSMOS 2251 DEB         
1 34910U 93036ADF 26073.42007501  .00001121  00000+0  11538-2 0  9999
2 34910  73.8758 316.7362 0466183  59.8943 116.3319 13.37848443827502
COSMOS 2251 DEB         
1 34911U 93036ADG 26073.42645019  .00000559  00000+0  11848-3 0  9991
2 34911  74.0388  69.9766 0083651 173.9593 336.7970 14.59525469899240
COSMOS 2251 DEB         
1 34913U 93036ADJ 26072.85341514  .00000098  00000+0  43865-4 0  9995
2 34913  74.0264 115.5236 0021663 209.3582 328.8749 14.34668146664948
COSMOS 2251 DEB         
1 34918U 93036ADP 26070.20458168  .00006662  00000+0  13030-2 0  9993
2 34918  74.0713 144.6339 0026029  86.3459 306.3109 14.62822216666298
COSMOS 2251 DEB         
1 34924U 93036ADV 26073.26020896  .00003474  00000+0  70135-3 0  9990
2 34924  74.0389 274.7129 0054261 334.4078 143.3126 14.60891221890599
COSMOS 2251 DEB         
1 34944U 93036ADX 26072.31030083  .00001783  00000+0  74650-3 0  9993
2 34944  73.7466  68.5951 0222146 261.4590  96.1322 14.14439554653633
COSMOS 2251 DEB         
1 34946U 93036ADZ 26072.60483727  .00003107  00000+0  60549-3 0  9998
2 34946  74.0238 167.9372 0052089 281.9522  77.5808 14.62607907895379
COSMOS 2251 DEB         
1 34949U 93036AEC 26073.30886363  .00002684  00000+0  38842-3 0  9992
2 34949  74.0172 290.6843 0077508  52.1384 308.6768 14.74621023897118
COSMOS 2251 DEB         
1 34953U 93036AEG 26072.39115704  .00007345  00000+0  11949-2 0  9996
2 34953  74.0911 212.4379 0056036 182.7720 208.9913 14.70161744894607
COSMOS 2251 DEB         
1 34955U 93036AEJ 26071.29678340  .00009156  00000+0  65373-3 0  9999
2 34955  74.0345  64.0344 0071575 111.4171 249.4673 15.02532107913782
